[{"OBJECT_NAME":"YAOGAN-36 04C","OBJECT_ID":"2022-171E","EPOCH":"2026-03-09T18:55:44.889600","MEAN_MOTION":15.29852307,"ECCENTRICITY":0.00066848,"INCLINATION":34.9797,"RA_OF_ASC_NODE":96.6578,"ARG_OF_PERICENTER":275.3761,"MEAN_ANOMALY":84.6192,"EPHEMERIS_TYPE":0,"CLASSIFICATION_TYPE":"U","NORAD_CAT_ID":54750,"ELEMENT_SET_NO":999,"REV_AT_EPOCH":18024,"BSTAR":0.00054591902,"MEAN_MOTION_DOT":0.00016196,"MEAN_MOTION_DDOT":0},{"OBJECT_NAME":"STARLINK-31906","OBJECT_ID":"2024-097H","EPOCH":"2026-03-08T23:00:34.726464","MEAN_MOTION":15.27568151,"ECCENTRICITY":0.00019991,"INCLINATION":43.0029,"RA_OF_ASC_NODE":278.6119,"ARG_OF_PERICENTER":291.8309,"MEAN_ANOMALY":68.233,"EPHEMERIS_TYPE":0,"CLASSIFICATION_TYPE":"U","NORAD_CAT_ID":59842,"ELEMENT_SET_NO":999,"REV_AT_EPOCH":10180,"BSTAR":-2.9135845e-5,"MEAN_MOTION_DOT":-1.064e-5,"MEAN_MOTION_DDOT":0}]
