YAOGAN-36 04C           
1 54750U 22171E   26068.78871400  .00016196  00000+0  54592-3 0  9991
2 54750  34.9797  96.6578 0006685 275.3761  84.6192 15.29852307180246
STARLINK-31906          
1 59842U 24097H   26067.95873526 -.00001064  00000+0 -29136-4 0  9993
2 59842  43.0029 278.6119 0001999 291.8309  68.2330 15.27568151101805
